NORAD_CAT_ID,OBJECT_NAME,OBJECT_TYPE,EPOCH,MEAN_MOTION,ECCENTRICITY,INCLINATION,RA_OF_ASC_NODE,ARG_OF_PERICENTER,MEAN_ANOMALY,BSTAR,MEAN_MOTION_DOT,MEAN_MOTION_DDOT,TLE_LINE0,TLE_LINE1,TLE_LINE2,SEMIMAJOR_AXIS,PERIOD,APOGEE,PERIGEE,DECAYED
55396.0,STARLINK-5283,PAYLOAD,2023-09-26 03:16:50,14.98353286,0.0003183,70.0007,162.3329,270.2945,89.785,0.00012316,1.378e-05,0.0,0 STARLINK-5283,1 55396U 23014F   23269.13669301  .00001378  00000-0  12316-3 0  9994,2 55396  70.0007 162.3329 0003183 270.2945  89.7850 14.98353286 37910,6950.121,96.106,574.198,569.774,0.0
55396.0,STARLINK-5283,PAYLOAD,2023-09-26 17:42:05,14.98319069,0.0003116,70.0011,160.8182,275.2347,84.8456,-0.00011212,-1.43e-05,0.0,0 STARLINK-5283,1 55396U 23014F   23269.73756164 -.00001430  00000-0 -11212-3 0  9999,2 55396  70.0011 160.8182 0003116 275.2347  84.8456 14.98319069 37067,6950.227,96.108,574.257,569.926,0.0
55396.0,STARLINK-5283,PAYLOAD,2023-09-26 20:54:21,14.98318283,0.0003115,70.001,160.4818,274.8946,85.1858,-0.0001199,-1.523e-05,0.0,0 STARLINK-5283,1 55396U 23014F   23269.87108304 -.00001523  00000-0 -11990-3 0  9997,2 55396  70.0010 160.4818 0003115 274.8946  85.1858 14.98318283 38021,6950.229,96.108,574.259,569.929,0.0
55396.0,STARLINK-5283,PAYLOAD,2023-09-27 09:43:25,14.98323645,0.0002904,70.0011,159.1344,274.4959,85.5868,-0.00012385,-1.57e-05,0.0,0 STARLINK-5283,1 55396U 23014F   23270.40516189 -.00001570  00000-0 -12385-3 0  9993,2 55396  70.0011 159.1344 0002904 274.4959  85.5868 14.98323645 38108,6950.213,96.107,574.096,570.059,0.0
55396.0,STARLINK-5283,PAYLOAD,2023-09-27 19:20:14,14.98326568,0.0003037,70.0001,158.1242,272.104,87.9771,-0.00019751,-2.449e-05,0.0,0 STARLINK-5283,1 55396U 23014F   23270.80572309 -.00002449  00000-0 -19751-3 0  9993,2 55396  70.0001 158.1242 0003037 272.1040  87.9771 14.98326568 37225,6950.204,96.107,574.179,569.958,0.0
55396.0,STARLINK-5283,PAYLOAD,2023-09-28 01:44:46,14.98308598,0.0003058,70.0007,157.4512,270.3584,89.7225,0.00016247,1.845e-05,0.0,0 STARLINK-5283,1 55396U 23014F   23271.07276602  .00001845  00000-0  16247-3 0  9994,2 55396  70.0007 157.4512 0003058 270.3584  89.7225 14.98308598 37260,6950.259,96.108,574.249,569.999,0.0
55396.0,STARLINK-5283,PAYLOAD,2023-09-28 17:46:06,14.98325361,0.0003094,70.0001,155.7679,269.5879,90.4925,0.00016249,1.846e-05,0.0,0 STARLINK-5283,1 55396U 23014F   23271.74035506  .00001846  00000-0  16249-3 0  9997,2 55396  70.0001 155.7679 0003094 269.5879  90.4925 14.98325361 37360,6950.207,96.107,574.223,569.922,0.0
55396.0,STARLINK-5283,PAYLOAD,2023-09-28 20:58:22,14.98326547,0.0003194,70.0005,155.4318,272.6438,87.4356,0.00018277,2.088e-05,0.0,0 STARLINK-5283,1 55396U 23014F   23271.87387436  .00002088  00000-0  18277-3 0  9995,2 55396  70.0005 155.4318 0003194 272.6438  87.4356 14.98326547 38326,6950.204,96.107,574.288,569.849,0.0
55396.0,STARLINK-5283,PAYLOAD,2023-09-29 17:48:07,14.98332428,0.0002964,70.0012,153.2454,266.1843,93.8978,0.00013723,1.545e-05,0.0,0 STARLINK-5283,1 55396U 23014F   23272.74175129  .00001545  00000-0  13723-3 0  9994,2 55396  70.0012 153.2454 0002964 266.1843  93.8978 14.98332428 37519,6950.185,96.107,574.11,569.99,0.0
55396.0,STARLINK-5283,PAYLOAD,2023-09-30 01:48:47,14.98334104,0.0002764,70.001,152.4028,257.2609,102.8241,0.00011319,1.258e-05,0.0,0 STARLINK-5283,1 55396U 23014F   23273.07554958  .00001258  00000-0  11319-3 0  9992,2 55396  70.0010 152.4028 0002764 257.2609 102.8241 14.98334104 38501,6950.18,96.107,573.966,570.124,0.0
55396.0,STARLINK-5283,PAYLOAD,2023-09-30 09:49:28,14.98324597,0.0002153,70.0021,151.5639,291.4199,68.673,2.7572e-05,2.36e-06,0.0,0 STARLINK-5283,1 55396U 23014F   23273.40936238  .00000236  00000-0  27572-4 0  9998,2 55396  70.0021 151.5639 0002153 291.4199  68.6730 14.98324597 37615,6950.21,96.107,573.571,570.578,0.0
55396.0,STARLINK-5283,PAYLOAD,2023-10-01 01:50:49,14.98329696,0.0002864,70.0003,149.8768,266.9469,93.1362,-0.00011215,-1.431e-05,0.0,0 STARLINK-5283,1 55396U 23014F   23274.07695887 -.00001431  00000-0 -11215-3 0  9990,2 55396  70.0003 149.8768 0002864 266.9469  93.1362 14.98329696 38658,6950.194,96.107,574.049,570.068,0.0
55396.0,STARLINK-5283,PAYLOAD,2023-10-01 17:52:09,14.98333998,0.0002881,70.0,148.1938,266.1451,93.9379,9.3326e-06,1.8e-07,0.0,0 STARLINK-5283,1 55396U 23014F   23274.74455129  .00000018  00000-0  93326-5 0  9990,2 55396  70.0000 148.1938 0002881 266.1451  93.9379 14.98333998 37811,6950.181,96.107,574.048,570.043,0.0
55396.0,STARLINK-5283,PAYLOAD,2023-10-01 21:04:25,14.98334128,0.0002829,70.0001,147.8574,260.6642,99.4197,2.5895e-05,2.16e-06,0.0,0 STARLINK-5283,1 55396U 23014F   23274.87807016  .00000216  00000-0  25895-4 0  9995,2 55396  70.0001 147.8574 0002829 260.6642  99.4197 14.98334128 38778,6950.18,96.107,574.011,570.079,0.0
55396.0,STARLINK-5283,PAYLOAD,2023-10-02 19:30:18,14.98323843,0.0002864,69.9998,145.5008,269.0679,91.0152,5.5166e-05,5.65e-06,0.0,0 STARLINK-5283,1 55396U 23014F   23275.81271544  .00000565  00000-0  55166-4 0  9992,2 55396  69.9998 145.5008 0002864 269.0679  91.0152 14.98323843 37971,6950.212,96.107,574.067,570.086,0.0
55396.0,STARLINK-5283,PAYLOAD,2023-10-02 21:06:26,14.98323634,0.0002888,69.9998,145.3327,268.2302,91.8526,5.7252e-05,5.9e-06,0.0,0 STARLINK-5283,1 55396U 23014F   23275.87947567  .00000590  00000-0  57252-4 0  9999,2 55396  69.9998 145.3327 0002888 268.2302  91.8526 14.98323634 38920,6950.213,96.107,574.085,570.07,0.0
55396.0,STARLINK-5283,PAYLOAD,2023-10-03 08:19:22,14.98331332,0.000301,69.9999,144.1535,270.0442,90.0373,-3.9332e-05,-5.62e-06,0.0,0 STARLINK-5283,1 55396U 23014F   23276.34679290 -.00000562  00000-0 -39332-4 0  9997,2 55396  69.9999 144.1535 0003010 270.0442  90.0373 14.98331332 38995,6950.189,96.107,574.146,569.962,0.0
55396.0,STARLINK-5283,PAYLOAD,2023-10-03 21:08:27,14.98330047,0.0003105,69.9995,142.8074,272.4799,87.6005,-3.8942e-05,-5.58e-06,0.0,0 STARLINK-5283,1 55396U 23014F   23276.88087446 -.00000558  00000-0 -38942-4 0  9993,2 55396  69.9995 142.8074 0003105 272.4799  87.6005 14.98330047 39076,6950.193,96.107,574.216,569.9,0.0
55396.0,STARLINK-5283,PAYLOAD,2023-10-04 21:10:27,14.98332712,0.0002784,69.9995,140.2825,266.1934,93.8907,5.3003e-05,5.4e-06,0.0,0 STARLINK-5283,1 55396U 23014F   23277.88226841  .00000540  00000-0  53003-4 0  9992,2 55396  69.9995 140.2825 0002784 266.1934  93.8907 14.98332712 39223,6950.185,96.107,573.984,570.115,0.0
55396.0,STARLINK-5283,PAYLOAD,2023-10-05 00:22:43,14.98335342,0.0002935,69.999,139.9444,268.9738,91.1084,5.9682e-05,6.19e-06,0.0,0 STARLINK-5283,1 55396U 23014F   23278.01578593  .00000619  00000-0  59682-4 0  9998,2 55396  69.9990 139.9444 0002935 268.9738  91.1084 14.98335342 38307,6950.176,96.107,574.081,570.001,0.0
55396.0,STARLINK-5283,PAYLOAD,2023-10-05 19:36:21,14.98324927,0.0002958,69.9992,137.9235,267.6523,92.4297,2.4184e-05,1.96e-06,0.0,0 STARLINK-5283,1 55396U 23014F   23278.81691271  .00000196  00000-0  24184-4 0  9994,2 55396  69.9992 137.9235 0002958 267.6523  92.4297 14.98324927 38428,6950.209,96.107,574.129,570.018,0.0
55396.0,STARLINK-5283,PAYLOAD,2023-10-05 21:12:29,14.98325683,0.0002968,69.9995,137.756,268.9955,91.0864,5.3269e-05,5.43e-06,0.0,0 STARLINK-5283,1 55396U 23014F   23278.88367182  .00000543  00000-0  53269-4 0  9994,2 55396  69.9995 137.7560 0002968 268.9955  91.0864 14.98325683 39374,6950.206,96.107,574.134,570.008,0.0
55396.0,STARLINK-5283,PAYLOAD,2023-10-06 08:25:25,14.98325399,0.0002781,69.9994,136.5774,264.3396,95.7446,-2.6698e-05,-4.11e-06,0.0,0 STARLINK-5283,1 55396U 23014F   23279.35099469 -.00000411  00000-0 -26698-4 0  9999,2 55396  69.9994 136.5774 0002781 264.3396  95.7446 14.98325399 39448,6950.207,96.107,574.005,570.139,0.0
55396.0,STARLINK-5283,PAYLOAD,2023-10-06 21:14:30,14.9832743,0.0003233,69.9992,135.2326,271.8006,88.2783,-7.0555e-05,-9.35e-06,0.0,0 STARLINK-5283,1 55396U 23014F   23279.88507498 -.00000935  00000-0 -70555-4 0  9995,2 55396  69.9992 135.2326 0003233 271.8006  88.2783 14.98327430 39527,6950.201,96.107,574.313,569.819,0.0
55396.0,STARLINK-5283,PAYLOAD,2023-10-07 00:26:46,14.9832892,0.000312,69.9993,134.8959,269.7759,90.3043,-6.3305e-05,-8.48e-06,0.0,0 STARLINK-5283,1 55396U 23014F   23280.01859400 -.00000848  00000-0 -63305-4 0  9993,2 55396  69.9993 134.8959 0003120 269.7759  90.3043 14.98328920 38607,6950.196,96.107,574.23,569.893,0.0
55396.0,STARLINK-5283,PAYLOAD,2023-10-07 21:16:30,14.98334088,0.0003175,69.999,132.7078,270.6249,89.4546,5.2584e-05,5.35e-06,0.0,0 STARLINK-5283,1 55396U 23014F   23280.88646736  .00000535  00000-0  52584-4 0  9992,2 55396  69.9990 132.7078 0003175 270.6249  89.4546 14.98334088 39675,6950.18,96.107,574.252,569.839,0.0
55396.0,STARLINK-5283,PAYLOAD,2023-10-08 00:28:46,14.98336221,0.0003167,69.9991,132.3711,270.686,89.3936,7.4106e-05,7.91e-06,0.0,0 STARLINK-5283,1 55396U 23014F   23281.01998501  .00000791  00000-0  74106-4 0  9996,2 55396  69.9991 132.3711 0003167 270.6860  89.3936 14.98336221 38757,6950.174,96.107,574.24,569.838,0.0
55396.0,STARLINK-5283,PAYLOAD,2023-10-08 06:53:19,14.9833036,0.0003098,69.9993,131.6977,271.1195,88.9609,5.3685e-05,5.48e-06,0.0,0 STARLINK-5283,1 55396U 23014F   23281.28702888  .00000548  00000-0  53685-4 0  9995,2 55396  69.9993 131.6977 0003098 271.1195  88.9609 14.98330360 38799,6950.192,96.107,574.21,569.904,0.0
55396.0,STARLINK-5283,PAYLOAD,2023-10-08 13:17:51,14.98325607,0.0003042,69.9993,131.0245,271.7952,88.2858,2.7121e-05,2.31e-06,0.0,0 STARLINK-5283,1 55396U 23014F   23281.55407289  .00000231  00000-0  27121-4 0  9997,2 55396  69.9993 131.0245 0003042 271.7952  88.2858 14.98325607 39773,6950.206,96.107,574.186,569.957,0.0
55396.0,STARLINK-5283,PAYLOAD,2023-10-08 21:18:31,14.98329016,0.0002992,69.9992,130.1833,270.4735,89.6081,6.2076e-05,6.48e-06,0.0,0 STARLINK-5283,1 55396U 23014F   23281.88787012  .00000648  00000-0  62076-4 0  9998,2 55396  69.9992 130.1833 0002992 270.4735  89.6081 14.98329016 39820,6950.196,96.107,574.14,569.981,0.0
